TROLL                   
1 62658U 25009BB  26068.22522958  .00013174  00000+0  48220-3 0  9994
2 62658  97.3932 150.7169 0001816  59.1850 300.9568 15.28164315118170
STARLINK-33940          
1 63831U 25092AD  26068.29449998  .00036766  00000+0  13384-2 0  9993
2 63831  43.0000 174.8293 0000743 283.8597  76.2172 15.27594214 48603
